[
   {
      "name": "STARLINK-1705",
      "line1": "1 46579U 20070AZ  21092.82662120 -.00000963  00000-0 -45762-4 0  9999",
      "line2": "2 46579  53.0566 330.4929 0001753  82.0993 278.0195 15.06393459 28136",
      "bstar": -4.5762,
      "inc": 53.0566,
      "raan": 330.4929,
      "ecc": 0.0001753,
      "argp": 82.0993,
      "nu": 278.0195,
      "mmo": 15.06393459,
      "a": 6925.36861
   },
   {
      "name": "STARLINK-1708",
      "line1": "1 46580U 20070BA  21092.93719353  .00001526  00000-0  12132-3 0  9992",
      "line2": "2 46580  53.0588 329.9886 0001662  86.3539 273.7640 15.06402502 28158",
      "bstar": 12.132,
      "inc": 53.0588,
      "raan": 329.9886,
      "ecc": 0.0001662,
      "argp": 86.3539,
      "nu": 273.764,
      "mmo": 15.06402502,
      "a": 6925.34089
   },
   {
      "name": "STARLINK-1712",
      "line1": "1 46581U 20070BB  21092.90263427  .00000917  00000-0  80459-4 0  9997",
      "line2": "2 46581  53.0525 325.1765 0002112  82.7888 277.3341 15.06400402 28214",
      "bstar": 8.0459,
      "inc": 53.0525,
      "raan": 325.1765,
      "ecc": 0.0002112,
      "argp": 82.7888,
      "nu": 277.3341,
      "mmo": 15.06400402,
      "a": 6925.34733
   },
   {
      "name": "STARLINK-1728",
      "line1": "1 46582U 20070BC  21092.82797971  .00001273  00000-0  10438-3 0  9990",
      "line2": "2 46582  53.0577 325.4819 0001704  81.2974 278.8208 15.06399124 28206",
      "bstar": 10.438,
      "inc": 53.0577,
      "raan": 325.4819,
      "ecc": 0.0001704,
      "argp": 81.2974,
      "nu": 278.8208,
      "mmo": 15.06399124,
      "a": 6925.35124
   },
   {
      "name": "STARLINK-1729",
      "line1": "1 46583U 20070BD  21092.87131245 -.00000837  00000-0 -37257-4 0  9998",
      "line2": "2 46583  53.0602 345.2831 0002405  74.4804 285.6451 15.06391159 27929",
      "bstar": -3.7257,
      "inc": 53.0602,
      "raan": 345.2831,
      "ecc": 0.0002405,
      "argp": 74.4804,
      "nu": 285.6451,
      "mmo": 15.06391159,
      "a": 6925.37566
   },
   {
      "name": "STARLINK-1732",
      "line1": "1 46584U 20070BE  21092.82523435  .00001152  00000-0  96258-4 0  9995",
      "line2": "2 46584  53.0592 325.4952 0001892  86.3632 273.7574 15.06400992 28204",
      "bstar": 9.6258,
      "inc": 53.0592,
      "raan": 325.4952,
      "ecc": 0.0001892,
      "argp": 86.3632,
      "nu": 273.7574,
      "mmo": 15.06400992,
      "a": 6925.34552
   },
   {
      "name": "STARLINK-1736",
      "line1": "1 46585U 20070BF  21092.91000667  .00000985  00000-0  85002-4 0  9991",
      "line2": "2 46585  53.0578 325.1179 0001956  81.5282 278.5929 15.06404926 28215",
      "bstar": 8.5002,
      "inc": 53.0578,
      "raan": 325.1179,
      "ecc": 0.0001956,
      "argp": 81.5282,
      "nu": 278.5929,
      "mmo": 15.06404926,
      "a": 6925.33346
   },
   {
      "name": "STARLINK-1737",
      "line1": "1 46586U 20070BG  21092.89896113  .00000233  00000-0  34584-4 0  9993",
      "line2": "2 46586  53.0575 325.1618 0001934  80.8620 279.2588 15.06389539 28216",
      "bstar": 3.4584,
      "inc": 53.0575,
      "raan": 325.1618,
      "ecc": 0.0001934,
      "argp": 80.862,
      "nu": 279.2588,
      "mmo": 15.06389539,
      "a": 6925.38062
   },
   {
      "name": "STARLINK-1744",
      "line1": "1 46587U 20070BH  21092.80979922  .00009300  00000-0  19565-3 0  9990",
      "line2": "2 46587  52.9987 286.7567 0000311  83.3050 276.7991 15.46057727 29216",
      "bstar": 19.565,
      "inc": 52.9987,
      "raan": 286.7567,
      "ecc": 3.11e-05,
      "argp": 83.305,
      "nu": 276.7991,
      "mmo": 15.46057727,
      "a": 6806.40892
   },
   {
      "name": "STARLINK-1746",
      "line1": "1 46588U 20070BJ  21092.94687448  .00000898  00000-0  79208-4 0  9999",
      "line2": "2 46588  53.0583 324.9512 0001711  81.8011 278.3172 15.06391484 28227",
      "bstar": 7.9208,
      "inc": 53.0583,
      "raan": 324.9512,
      "ecc": 0.0001711,
      "argp": 81.8011,
      "nu": 278.3172,
      "mmo": 15.06391484,
      "a": 6925.37466
   },
   {
      "name": "STARLINK-1749",
      "line1": "1 46589U 20070BK  21092.93951003 -.00001303  00000-0 -68489-4 0  9993",
      "line2": "2 46589  53.0333 325.0875 0005406  75.1924 284.9663 15.06391844 28216",
      "bstar": -6.8489,
      "inc": 53.0333,
      "raan": 325.0875,
      "ecc": 0.0005406,
      "argp": 75.1924,
      "nu": 284.9663,
      "mmo": 15.06391844,
      "a": 6925.37356
   },
   {
      "name": "STARLINK-1754",
      "line1": "1 46590U 20070BL  21092.91853762 -.00008469  00000-0 -96444-4 0  9998",
      "line2": "2 46590  53.0614 290.1559 0002261  54.8328 305.2896 15.60070110 28708",
      "bstar": -9.6444,
      "inc": 53.0614,
      "raan": 290.1559,
      "ecc": 0.0002261,
      "argp": 54.8328,
      "nu": 305.2896,
      "mmo": 15.6007011,
      "a": 6765.59138
   },
   {
      "name": "STARLINK-1755",
      "line1": "1 46591U 20070BM  21092.92844723 -.00000961  00000-0 -45562-4 0  9991",
      "line2": "2 46591  53.0671 324.9823 0002807  77.8704 282.2599 15.06393009 27271",
      "bstar": -4.5562,
      "inc": 53.0671,
      "raan": 324.9823,
      "ecc": 0.0002807,
      "argp": 77.8704,
      "nu": 282.2599,
      "mmo": 15.06393009,
      "a": 6925.36999
   },
   {
      "name": "STARLINK-1715",
      "line1": "1 46671U 20073B   21092.86760463  .00001232  00000-0  10159-3 0  9997",
      "line2": "2 46671  53.0572  55.3014 0001451  81.8067 278.3086 15.06391392 25489",
      "bstar": 10.159,
      "inc": 53.0572,
      "raan": 55.3014,
      "ecc": 0.0001451,
      "argp": 81.8067,
      "nu": 278.3086,
      "mmo": 15.06391392,
      "a": 6925.37494
   },
   {
      "name": "STARLINK-1716",
      "line1": "1 46672U 20073C   21092.90771178 -.00001103  00000-0 -55191-4 0  9993",
      "line2": "2 46672  53.0615  50.1142 0001214  74.8461 285.2662 15.06395556 25562",
      "bstar": -5.5191,
      "inc": 53.0615,
      "raan": 50.1142,
      "ecc": 0.0001214,
      "argp": 74.8461,
      "nu": 285.2662,
      "mmo": 15.06395556,
      "a": 6925.36218
   },
   {
      "name": "STARLINK-1717",
      "line1": "1 46673U 20073D   21092.61234426  .00000756  00000-0  69625-4 0  9990",
      "line2": "2 46673  53.0565  66.4681 0000974  72.5713 287.5382 15.06399701 25304",
      "bstar": 6.9625,
      "inc": 53.0565,
      "raan": 66.4681,
      "ecc": 9.74e-05,
      "argp": 72.5713,
      "nu": 287.5382,
      "mmo": 15.06399701,
      "a": 6925.34948
   },
   {
      "name": "STARLINK-1718",
      "line1": "1 46674U 20073E   21092.86716514  .00000973  00000-0  84210-4 0  9999",
      "line2": "2 46674  53.0573  50.3048 0001397  74.2840 285.8303 15.06396128 25554",
      "bstar": 8.421,
      "inc": 53.0573,
      "raan": 50.3048,
      "ecc": 0.0001397,
      "argp": 74.284,
      "nu": 285.8303,
      "mmo": 15.06396128,
      "a": 6925.36043
   },
   {
      "name": "STARLINK-1720",
      "line1": "1 46675U 20073F   21092.59809115  .00001074  00000-0  90963-4 0  9995",
      "line2": "2 46675  53.0575  51.5123 0001247  80.1498 279.9632 15.06395787 25518",
      "bstar": 9.0963,
      "inc": 53.0575,
      "raan": 51.5123,
      "ecc": 0.0001247,
      "argp": 80.1498,
      "nu": 279.9632,
      "mmo": 15.06395787,
      "a": 6925.36147
   },
   {
      "name": "STARLINK-1731",
      "line1": "1 46676U 20073G   21092.68835998  .00007092  00000-0  49396-3 0  9993",
      "line2": "2 46676  53.0998  30.7104 0006640 298.0262  62.0055 15.06435779 25816",
      "bstar": 49.396,
      "inc": 53.0998,
      "raan": 30.7104,
      "ecc": 0.000664,
      "argp": 298.0262,
      "nu": 62.0055,
      "mmo": 15.06435779,
      "a": 6925.2389
   },
   {
      "name": "STARLINK-1766",
      "line1": "1 46677U 20073H   21092.39536882  .00001014  00000-0  87006-4 0  9991",
      "line2": "2 46677  53.0564  52.4252 0001415  79.7348 280.3800 15.06388975 25486",
      "bstar": 8.7006,
      "inc": 53.0564,
      "raan": 52.4252,
      "ecc": 0.0001415,
      "argp": 79.7348,
      "nu": 280.38,
      "mmo": 15.06388975,
      "a": 6925.38235
   },
   {
      "name": "STARLINK-1773",
      "line1": "1 46679U 20073K   21092.33453396 -.00000213  00000-0  46999-5 0  9993",
      "line2": "2 46679  53.0534  32.7011 0005655 322.0709  37.9881 15.06398839 25759",
      "bstar": 0.46999,
      "inc": 53.0534,
      "raan": 32.7011,
      "ecc": 0.0005655,
      "argp": 322.0709,
      "nu": 37.9881,
      "mmo": 15.06398839,
      "a": 6925.35212
   },
   {
      "name": "STARLINK-1774",
      "line1": "1 46680U 20073L   21092.93396558 -.00001121  00000-0 -56392-4 0  9994",
      "line2": "2 46680  53.0563  65.0228 0000706 108.6378 251.4687 15.06395235 25354",
      "bstar": -5.6392,
      "inc": 53.0563,
      "raan": 65.0228,
      "ecc": 7.06e-05,
      "argp": 108.6378,
      "nu": 251.4687,
      "mmo": 15.06395235,
      "a": 6925.36316
   },
   {
      "name": "STARLINK-1775",
      "line1": "1 46681U 20073M   21092.90447597  .00000943  00000-0  82145-4 0  9996",
      "line2": "2 46681  53.0540  65.1367 0000563  89.4002 270.7051 15.06402651 25345",
      "bstar": 8.2145,
      "inc": 53.054,
      "raan": 65.1367,
      "ecc": 5.63e-05,
      "argp": 89.4002,
      "nu": 270.7051,
      "mmo": 15.06402651,
      "a": 6925.34043
   },
   {
      "name": "STARLINK-1776",
      "line1": "1 46682U 20073N   21092.93028245 -.00001080  00000-0 -53678-4 0  9999",
      "line2": "2 46682  53.0555  65.0311 0000571  57.4272 302.6772 15.06393638 25353",
      "bstar": -5.3678,
      "inc": 53.0555,
      "raan": 65.0311,
      "ecc": 5.71e-05,
      "argp": 57.4272,
      "nu": 302.6772,
      "mmo": 15.06393638,
      "a": 6925.36806
   }
]